ONEWEB-0504             
1 54122U 22138K   24161.35506313  .00000069  00000+0  13952-3 0  9997
2 54122  87.9150  91.7975 0002200  90.7621 269.3763 13.19725007 79516
ONEWEB-0505             
1 54123U 22138L   24162.18588865  .00000071  00000+0  14412-3 0  9997
2 54123  87.9150  91.6270 0002681  92.2791 267.8649 13.19724860 80471
ONEWEB-0506             
1 54124U 22138M   24161.78153117  .00000028  00000+0  37702-4 0  9991
2 54124  87.9148  91.7043 0002264  85.0565 275.0826 13.19724322 79541
ONEWEB-0507             
1 54125U 22138N   24161.87788129  .00000073  00000+0  15095-3 0  9999
2 54125  87.9156  91.7059 0002401  82.3500 277.7905 13.19725573 79603
ONEWEB-0508             
1 54126U 22138P   24161.87470609  .00000025  00000+0  29389-4 0  9990
2 54126  87.9154  91.7001 0002491  83.5477 276.5939 13.19724061 79586
ONEWEB-0509             
1 54127U 22138Q   24162.22853110  .00000111  00000+0  24612-3 0  9992
2 54127  87.9147  91.6168 0002217  83.6978 276.4407 13.19725100 80479
ONEWEB-0510             
1 54128U 22138R   24161.26035050  .00000009  00000+0 -10634-4 0  9998
2 54128  87.9221  61.2523 0001938  65.3069 294.8266 13.20771548 81879
ONEWEB-0511             
1 54129U 22138S   24161.77046947  .00000106  00000+0  23277-3 0  9995
2 54129  87.9147  91.7110 0001961  91.8064 268.3293 13.19724744 79576
